[{"OBJECT_NAME":"STARLINK-2502","OBJECT_ID":"2021-036BD","EPOCH":"2026-03-10T00:00:02.999808","MEAN_MOTION":15.28340514,"ECCENTRICITY":9.335e-5,"INCLINATION":53.1499,"RA_OF_ASC_NODE":99.3642,"ARG_OF_PERICENTER":50.0408,"MEAN_ANOMALY":293.7111,"EPHEMERIS_TYPE":0,"CLASSIFICATION_TYPE":"U","NORAD_CAT_ID":48327,"ELEMENT_SET_NO":999,"REV_AT_EPOCH":579,"BSTAR":0.043872504,"MEAN_MOTION_DOT":0.01350461,"MEAN_MOTION_DDOT":0},{"OBJECT_NAME":"SHARJAHSAT-1","OBJECT_ID":"2023-001CZ","EPOCH":"2026-03-09T23:14:03.954048","MEAN_MOTION":15.45313448,"ECCENTRICITY":0.00077056,"INCLINATION":97.3283,"RA_OF_ASC_NODE":136.581,"ARG_OF_PERICENTER":104.7034,"MEAN_ANOMALY":255.5069,"EPHEMERIS_TYPE":0,"CLASSIFICATION_TYPE":"U","NORAD_CAT_ID":55104,"ELEMENT_SET_NO":999,"REV_AT_EPOCH":17715,"BSTAR":0.00050352422,"MEAN_MOTION_DOT":0.00023971,"MEAN_MOTION_DDOT":0}]
